{"type":"FeatureCollection","features":[{"type":"Feature","id":"relation/1083127","properties":{"type":"relation","id":1083127,"tags":{"leisure":"park","name":"Giardini Pubblici Via Colombo","name:zh":"华人街公园","type":"multipolygon"},"relations":[],"meta":{}},"geometry":{"type":"Polygon","coordinates":[[[11.085503,43.882389],[11.0858991,43.8822133],[11.0859133,43.8822067],[11.0857683,43.8820424],[11.0864746,43.8817019],[11.0869453,43.8814749],[11.0876167,43.8822217],[11.0871398,43.8824515],[11.086792,43.882619],[11.0866593,43.8827026],[11.0864604,43.8827922],[11.0860377,43.8824069],[11.085731,43.8825294],[11.085503,43.882389]]]}},{"type":"Feature","id":"relation/2411479","properties":{"type":"relation","id":2411479,"tags":{"addr:city":"Prato","addr:housenumber":"37","addr:postcode":"59100","addr:street":"Via delle Pleiadi","name":"Parco Prato","name:zh":"Parco Prato 购物中心","shop":"mall","type":"multipolygon"},"relations":[],"meta":{}},"geometry":{"type":"Polygon","coordinates":[[[11.0667372,43.8737153],[11.067117,43.8752511],[11.0670049,43.8755122],[11.0669567,43.8755642],[11.0668895,43.8756149],[11.0668296,43.8755962],[11.0667822,43.8756337],[11.0665517,43.8755493],[11.0658816,43.8756276],[11.0657688,43.8756414],[11.0657321,43.8756238],[11.0657124,43.8755706],[11.0654438,43.874368],[11.0653735,43.8742309],[11.0652588,43.8741091],[11.0652331,43.8740884],[11.0651505,43.8740218],[11.0650935,43.8739549],[11.0650596,43.873911],[11.0650271,43.8738329],[11.0650206,43.8737471],[11.065018,43.8737117],[11.0650142,43.8736597],[11.0649774,43.8735614],[11.0648973,43.8734428],[11.0639385,43.8725739],[11.0639296,43.8725657],[11.0639661,43.8725031],[11.0640176,43.8724695],[11.0640349,43.8724852],[11.0645936,43.8721719],[11.0648604,43.8720223],[11.0649333,43.8720014],[11.0652559,43.8722901],[11.0654074,43.8721996],[11.0663756,43.8732778],[11.0666689,43.8735789],[11.0667372,43.8737153]]]}},{"type":"Feature","id":"relation/3341834","properties":{"type":"relation","id":3341834,"tags":{"building":"yes","building:levels":"2","name":"Museo d'arte contemporanea Luigi Pecci","name:zh":"當代藝術路易吉Pecci（佩西）博物館","tourism":"museum","type":"multipolygon","website":"http://www.centropecci.it","wikidata":"Q2946179","wikipedia":"it:Centro per l'arte contemporanea Luigi Pecci"},"relations":[],"meta":{}},"geometry":{"type":"Polygon","coordinates":[[[11.1089943,43.8610177],[11.1089638,43.8610135],[11.108951,43.8610117],[11.1087857,43.8609889],[11.1088144,43.8608806],[11.1086608,43.8608595],[11.1087459,43.8605386],[11.1090453,43.8605799],[11.1090721,43.860479],[11.1092477,43.8605032],[11.1093213,43.8605133],[11.1093817,43.8605216],[11.1093519,43.8606337],[11.1091985,43.8606132],[11.1091714,43.8607184],[11.109015,43.8606975],[11.1090088,43.8607215],[11.108873,43.8607033],[11.1088534,43.8607795],[11.1089874,43.8607974],[11.108962,43.8608962],[11.1092729,43.8609378],[11.1092248,43.8611068],[11.1092198,43.8611288],[11.109219,43.8611306],[11.1091034,43.8611125],[11.1090839,43.8611071],[11.1090596,43.8611068],[11.1090793,43.8610286],[11.1090408,43.8610238],[11.1089943,43.8610177]]]}},{"type":"Feature","id":"relation/3347600","properties":{"type":"relation","id":3347600,"tags":{"building":"hospital","name":"Vecchio Ospedale di Prato","name:zh":"老医院","type":"multipolygon"},"relations":[],"meta":{}},"geometry":{"type":"Polygon","coordinates":[[[11.0930124,43.8781146],[11.0930117,43.8781227],[11.0930958,43.8781278],[11.0930832,43.8782334],[11.0929969,43.8782303],[11.0929948,43.8782475],[11.0928159,43.8782356],[11.0928051,43.8783082],[11.0931079,43.8783274],[11.0931023,43.8783527],[11.0930743,43.8783517],[11.0930631,43.8784623],[11.0925745,43.8784315],[11.0925864,43.8782941],[11.0926095,43.8782946],[11.0926159,43.8782708],[11.0926796,43.8782744],[11.0926803,43.8782577],[11.0925479,43.8782476],[11.0925093,43.8785432],[11.0923726,43.8785336],[11.0923095,43.8785103],[11.0923642,43.8785573],[11.0923845,43.8785452],[11.0925948,43.878722],[11.092442,43.8788155],[11.0924007,43.8787968],[11.0924357,43.8787346],[11.0922331,43.8785603],[11.0921911,43.8786573],[11.0921504,43.8786816],[11.092196,43.8787215],[11.092156,43.8787442],[11.0921119,43.8787094],[11.0919163,43.8788554],[11.0919493,43.8788862],[11.0919072,43.8789155],[11.0918918,43.8789256],[11.0918497,43.8788913],[11.0917768,43.878867],[11.0919646,43.8790299],[11.0922451,43.8792672],[11.0921114,43.8793471],[11.0922769,43.8794836],[11.0923116,43.8795151],[11.0923539,43.8795562],[11.0925314,43.8797106],[11.0925128,43.8797181],[11.0925314,43.8797358],[11.092389,43.8798191],[11.0923505,43.8797888],[11.0922982,43.8798212],[11.0922852,43.8798088],[11.092244,43.8798306],[11.0924778,43.8800599],[11.0925183,43.880037],[11.0927235,43.8799204],[11.0925455,43.8797316],[11.0926589,43.8796717],[11.0928049,43.8797965],[11.0928456,43.8797773],[11.0929411,43.8798551],[11.093035,43.8798137],[11.0934808,43.8796166],[11.0934876,43.879612],[11.0935953,43.8795388],[11.0936944,43.8796383],[11.0933936,43.8797913],[11.0927778,43.8800656],[11.0926557,43.8801408],[11.0925212,43.880225],[11.0920552,43.8800616],[11.0918897,43.8799987],[11.0919687,43.879941],[11.0920093,43.8799582],[11.0920696,43.8799036],[11.0918915,43.8797713],[11.0916548,43.8799115],[11.0915803,43.8798477],[11.0915567,43.8798584],[11.0910905,43.8794337],[11.0909445,43.8795181],[11.0911984,43.879874],[11.0912174,43.8799025],[11.0910414,43.8800044],[11.09075,43.880143],[11.0906231,43.8801902],[11.0905516,43.8802028],[11.0904971,43.8801513],[11.0903831,43.8800249],[11.0903306,43.8799556],[11.0901938,43.8798034],[11.0903028,43.8797605],[11.0904188,43.8797176],[11.0902721,43.8795347],[11.0902354,43.8795504],[11.0901792,43.8794807],[11.0902647,43.8794387],[11.0903891,43.8793817],[11.0906383,43.8792715],[11.0904883,43.8790911],[11.0903965,43.8791285],[11.0903313,43.8790502],[11.0905072,43.8789714],[11.0905416,43.8790118],[11.0905934,43.8789886],[11.0906698,43.8790719],[11.0907266,43.8790512],[11.0908262,43.8791483],[11.091003,43.879065],[11.0911631,43.8792193],[11.0911806,43.8792361],[11.0912127,43.8792671],[11.0912154,43.8792697],[11.0913266,43.8792103],[11.0913532,43.8792406],[11.0913966,43.8792123],[11.0914086,43.8792234],[11.091492,43.8791724],[11.0914709,43.8791547],[11.0913959,43.8792017],[11.0913343,43.8791547],[11.0912936,43.879183],[11.0910392,43.8789975],[11.0913118,43.8788323],[11.0912999,43.8788237],[11.0913139,43.8788141],[11.0913114,43.8788012],[11.0913062,43.8787742],[11.0913805,43.8787677],[11.0913675,43.8787589],[11.0913483,43.8787459],[11.0913727,43.8786803],[11.0913833,43.878652],[11.0913966,43.8786343],[11.091417,43.8786252],[11.0914527,43.8786191],[11.091509,43.8786159],[11.0915768,43.878612],[11.0916118,43.8786393],[11.0917176,43.8785733],[11.0918615,43.8784834],[11.0919974,43.8783986],[11.0920429,43.8784405],[11.0921481,43.8783849],[11.0921595,43.8782102],[11.0921297,43.8782109],[11.0921297,43.8781859],[11.0916828,43.878086],[11.0916349,43.8781798],[11.09162,43.8781762],[11.0915742,43.8782732],[11.0915513,43.8783216],[11.0916298,43.8783429],[11.0916165,43.8783661],[11.0915366,43.8783484],[11.0915324,43.878356],[11.091341,43.8783045],[11.0914432,43.8781013],[11.0914363,43.8780988],[11.09154,43.8779053],[11.0916087,43.8779249],[11.0916126,43.877915],[11.0917188,43.8779459],[11.0917613,43.8778565],[11.0917455,43.8778525],[11.0917822,43.8777822],[11.0918486,43.8777997],[11.091858,43.8777829],[11.092081,43.8778413],[11.092074,43.8778594],[11.0921504,43.8778822],[11.0921139,43.8779499],[11.0920382,43.8779307],[11.0920305,43.8779438],[11.0918118,43.8778877],[11.0917768,43.8779615],[11.091999,43.8780221],[11.0920046,43.8780095],[11.0921315,43.8780413],[11.0923154,43.8780495],[11.0923182,43.8780212],[11.0924745,43.8780308],[11.0924709,43.8780795],[11.0930124,43.8781146]],[[11.0909424,43.8792062],[11.0910303,43.8792964],[11.0910664,43.8792781],[11.0909786,43.8791879],[11.0909424,43.8792062]],[[11.0904012,43.8799173],[11.090552,43.8801088],[11.0907036,43.8800467],[11.0905528,43.8798552],[11.0904012,43.8799173]],[[11.0903683,43.8797859],[11.090402,43.8798416],[11.0907013,43.8797216],[11.0906835,43.879693],[11.0904436,43.8797902],[11.0904277,43.8797673],[11.0903683,43.8797859]],[[11.0904048,43.879495],[11.090493,43.8795977],[11.0907019,43.8795045],[11.0906137,43.8794018],[11.0904048,43.879495]],[[11.0920302,43.879761],[11.0921115,43.8798307],[11.0922931,43.8797205],[11.0922118,43.8796509],[11.0920302,43.879761]],[[11.0915868,43.8797093],[11.0916609,43.8797733],[11.0918542,43.8796569],[11.0921474,43.8794804],[11.0920808,43.879423],[11.0918197,43.8795802],[11.0918121,43.8795736],[11.0915868,43.8797093]],[[11.0914916,43.8794961],[11.0915803,43.8795711],[11.0917118,43.8794903],[11.0916962,43.8794772],[11.0919555,43.8793179],[11.0918823,43.879256],[11.0914916,43.8794961]]]}},{"type":"Feature","id":"way/33280467","properties":{"type":"way","id":33280467,"tags":{"area":"yes","bicycle":"yes","comment":"Area Pedonale Urbana (ZTL 0-24) - ordinanza comunale 3559/2014","highway":"pedestrian","name":"Piazza del Duomo","name:zh":"大教堂廣場","surface":"paving_stones","wikipedia":"it:Piazza del Duomo (Prato)"},"relations":[],"meta":{}},"geometry":{"type":"Polygon","coordinates":[[[11.0971761,43.8825581],[11.0970781,43.8823188],[11.0970463,43.8822401],[11.0970198,43.8821629],[11.0969324,43.8818544],[11.0969477,43.8818493],[11.0969633,43.8818447],[11.0971888,43.8817887],[11.0974989,43.8817086],[11.0975122,43.8817048],[11.0975218,43.8817019],[11.0977199,43.8816379],[11.0977378,43.8816295],[11.0977547,43.881619],[11.0980857,43.8814771],[11.0982059,43.8816109],[11.0982235,43.8816316],[11.0982442,43.8816512],[11.098072,43.881698],[11.0979821,43.8817218],[11.098008,43.8817728],[11.0976905,43.8818623],[11.0977665,43.8820208],[11.0977968,43.882087],[11.0977612,43.8821621],[11.0977891,43.8824459],[11.0977032,43.8824609],[11.0974266,43.8825087],[11.0972762,43.8825366],[11.0971761,43.8825581]]]}},{"type":"Feature","id":"way/152850656","properties":{"type":"way","id":152850656,"tags":{"amenity":"hospital","emergency":"yes","name":"Ospedale Santo Stefano","name:zh":"医院","toilets:wheelchair":"yes","wheelchair":"yes"},"relations":[],"meta":{}},"geometry":{"type":"Polygon","coordinates":[[[11.062073,43.8894055],[11.0628268,43.8890879],[11.0634869,43.8888086],[11.0639523,43.8893634],[11.0640299,43.8893762],[11.0649695,43.8889917],[11.0653946,43.8890723],[11.0669266,43.8909757],[11.0659738,43.891316],[11.0637762,43.8921109],[11.0635611,43.8920135],[11.0634468,43.8919652],[11.0628338,43.8919112],[11.0627118,43.8921119],[11.0620085,43.8918819],[11.0621671,43.8917017],[11.0625431,43.8914849],[11.0621525,43.8910672],[11.0620168,43.8909419],[11.061815,43.8910263],[11.060966,43.8899571],[11.0609182,43.8898953],[11.062073,43.8894055]]]}},{"type":"Feature","id":"way/282385571","properties":{"type":"way","id":282385571,"tags":{"addr:city":"Prato","addr:housenumber":"7, 9, 11, 13, 15, 17","addr:postcode":"59100","addr:street":"Via San Silvestro","building":"school","name":"Istituto Comprensivo \"Mazzoni\"","name:zh":"学校","phone":"+39 0574 448250","website":"http://www.mazzoni.prato.it/"},"relations":[],"meta":{}},"geometry":{"type":"Polygon","coordinates":[[[11.1017375,43.87896],[11.1016219,43.8788766],[11.1017244,43.8787891],[11.1016775,43.8787585],[11.1016307,43.8787912],[11.1015019,43.8787036],[11.1017683,43.8784906],[11.1020185,43.8786931],[11.1019556,43.8787416],[11.1022531,43.878951],[11.1022173,43.8789882],[11.1021424,43.8790661],[11.1022334,43.8791298],[11.102178,43.8791899],[11.1021466,43.8791708],[11.1019453,43.8790486],[11.1019395,43.8789916],[11.1019856,43.8789697],[11.1018458,43.8788808],[11.1017375,43.87896]]]}},{"type":"Feature","id":"way/384831038","properties":{"type":"way","id":384831038,"tags":{"addr:city":"Prato","addr:housenumber":"6","addr:postcode":"59100","addr:street":"Via Antonio Marini","building":"yes","name":"Ospedale Cinese","name:zh":"健康医疗中心"},"relations":[],"meta":{}},"geometry":{"type":"Polygon","coordinates":[[[11.0901873,43.8843377],[11.0903547,43.8842488],[11.090359,43.8842458],[11.0903781,43.8842612],[11.0905959,43.8841614],[11.0906867,43.8842646],[11.0903134,43.8844611],[11.0901873,43.8843377]]]}},{"type":"Feature","id":"node/61753372","properties":{"type":"node","id":61753372,"tags":{"capital":"6","gfoss_id":"7945","name":"Prato","name:el":"Πράτο","name:it":"Prato","name:ru":"Прато","name:zh":"普拉托","place":"city","population":"191150","source":"geodati.gfoss.it","wikidata":"Q13377"},"relations":[],"meta":{}},"geometry":{"type":"Point","coordinates":[11.0969262,43.880598]}},{"type":"Feature","id":"node/277936050","properties":{"type":"node","id":277936050,"tags":{"name":"Prato Borgonuovo","name:zh":"Borgonuovo 小火车站","operator":"RFI","railway":"halt","wheelchair":"yes","wikidata":"Q3970606","wikipedia":"it:Stazione di Prato Borgonuovo"},"relations":[],"meta":{}},"geometry":{"type":"Point","coordinates":[11.0753784,43.8914636]}},{"type":"Feature","id":"node/622540436","properties":{"type":"node","id":622540436,"tags":{"addr:city":"Prato","addr:housenumber":"3","addr:postcode":"59100","addr:street":"Via Puccetti","amenity":"library","name":"Biblioteca comunale A. Lazzerini","name:zh":"鎮庫","operator":"Comune di Prato"},"relations":[],"meta":{}},"geometry":{"type":"Point","coordinates":[11.0986885,43.8764293]}},{"type":"Feature","id":"node/1917000982","properties":{"type":"node","id":1917000982,"tags":{"addr:city":"Prato","addr:housenumber":"199","addr:postcode":"59100","addr:street":"Via Pistoiese","name":"Pam","name:zh":"小Pam超市","shop":"supermarket"},"relations":[],"meta":{}},"geometry":{"type":"Point","coordinates":[11.0843064,43.8859126]}},{"type":"Feature","id":"node/2080887279","properties":{"type":"node","id":2080887279,"tags":{"name":"Museo del Tessuto","name:zh":"織物博物館","tourism":"museum","wikidata":"Q3867983","wikipedia":"it:Museo del tessuto"},"relations":[],"meta":{}},"geometry":{"type":"Point","coordinates":[11.0986945,43.8772936]}},{"type":"Feature","id":"node/2557585298","properties":{"type":"node","id":2557585298,"tags":{"amenity":"fire_station","name":"vigili del fuoco","name:zh":"火警"},"relations":[],"meta":{}},"geometry":{"type":"Point","coordinates":[11.0665967,43.8584922]}},{"type":"Feature","id":"node/2708585703","properties":{"type":"node","id":2708585703,"tags":{"addr:city":"Prato","addr:country":"IT","addr:housenumber":"39/D","addr:postcode":"59100","addr:street":"Via Fabio Filzi","amenity":"restaurant","cuisine":"chinese","name":"Ravioli Liu","name:zh":"刘老根饺子馆","phone":"+39 0574 830973"},"relations":[],"meta":{}},"geometry":{"type":"Point","coordinates":[11.0873208,43.8858699]}},{"type":"Feature","id":"node/2708586779","properties":{"type":"node","id":2708586779,"tags":{"amenity":"cafe","name":"Circolo Eugenio Curiel (associazione Meltin-PO)","name:zh":"协会"},"relations":[],"meta":{}},"geometry":{"type":"Point","coordinates":[11.0871916,43.886152]}},{"type":"Feature","id":"node/2941462545","properties":{"type":"node","id":2941462545,"tags":{"addr:city":"Prato","addr:housenumber":"1","addr:postcode":"59100","addr:street":"Via Fiorentina","name":"Esselunga Superstore","name:zh":"Esselunga 超市","operator":"Esselunga","shop":"supermarket","toilets:wheelchair":"yes","wheelchair":"yes"},"relations":[],"meta":{}},"geometry":{"type":"Point","coordinates":[11.0965332,43.8647654]}},{"type":"Feature","id":"node/3316266550","properties":{"type":"node","id":3316266550,"tags":{"amenity":"police","name":"Questura","name:zh":"警察局"},"relations":[],"meta":{}},"geometry":{"type":"Point","coordinates":[11.1061028,43.8602778]}},{"type":"Feature","id":"node/3330084746","properties":{"type":"node","id":3330084746,"tags":{"name":"Prato Centrale","name:zh":"普拉托中央火车站","operator":"RFI;Centostazioni","railway":"station","wikidata":"Q3970613","wikipedia":"it:Stazione di Prato Centrale"},"relations":[],"meta":{}},"geometry":{"type":"Point","coordinates":[11.1094045,43.878958]}},{"type":"Feature","id":"node/3330084767","properties":{"type":"node","id":3330084767,"tags":{"name":"Prato Porta al Serraglio","name:zh":"普拉托小火车站","operator":"RFI","railway":"halt","wikidata":"Q3970607","wikipedia":"it:Stazione di Prato Porta al Serraglio"},"relations":[],"meta":{}},"geometry":{"type":"Point","coordinates":[11.0983648,43.8845196]}},{"type":"Feature","id":"node/3569095093","properties":{"type":"node","id":3569095093,"tags":{"addr:city":"Prato","addr:housenumber":"106","addr:postcode":"59100","addr:street":"Via di Reggiana","amenity":"school","name":"Istituto Tecnico Commerciale A.Gramsci - J.M.Keynes","name:zh":"Gramsci Keynes技校"},"relations":[],"meta":{}},"geometry":{"type":"Point","coordinates":[11.0699526,43.876747]}},{"type":"Feature","id":"node/3569095893","properties":{"type":"node","id":3569095893,"tags":{"addr:city":"Prato","addr:housenumber":"86","addr:postcode":"59100","addr:street":"Via di Reggiana","amenity":"school","name":"ITC P. Dagomari","name:zh":"Dagomari 技校"},"relations":[],"meta":{}},"geometry":{"type":"Point","coordinates":[11.0720232,43.8761322]}},{"type":"Feature","id":"node/3899790681","properties":{"type":"node","id":3899790681,"tags":{"addr:city":"Prato","addr:housenumber":"174","addr:postcode":"59100","addr:street":"Via Pistoiese","amenity":"pharmacy","name":"Farmacia Etrusca","name:zh":"药房"},"relations":[],"meta":{}},"geometry":{"type":"Point","coordinates":[11.0849375,43.8863221]}},{"type":"Feature","id":"node/3899792882","properties":{"type":"node","id":3899792882,"tags":{"addr:city":"Prato","addr:housenumber":"12","addr:postcode":"59100","addr:street":"Via Giuseppe Becagli","amenity":"pharmacy","name":"Para Farmacia ZhongHua","name:zh":"中华药房"},"relations":[],"meta":{}},"geometry":{"type":"Point","coordinates":[11.0878995,43.8855659]}},{"type":"Feature","id":"node/3899799775","properties":{"type":"node","id":3899799775,"tags":{"addr:city":"Prato","addr:housenumber":"93/v","addr:postcode":"59100","addr:street":"Via Galcianese","name":"Aesthetic Medical Care Srl","name:zh":"爱心医疗中心","office":"physician"},"relations":[],"meta":{}},"geometry":{"type":"Point","coordinates":[11.0692636,43.8815689]}},{"type":"Feature","id":"node/3899802234","properties":{"type":"node","id":3899802234,"tags":{"addr:city":"Prato","addr:housenumber":"25","addr:postcode":"59100","addr:street":"Piazza Giovanni Ciardi","amenity":"university","name":"PIN","name:zh":"佛罗伦萨大学 普拉托校区","operator":"Polo Universitario Città di Prato"},"relations":[],"meta":{}},"geometry":{"type":"Point","coordinates":[11.0988214,43.8852857]}},{"type":"Feature","id":"node/3899802714","properties":{"type":"node","id":3899802714,"tags":{"addr:city":"Prato","addr:housenumber":"186","addr:postcode":"59100","addr:street":"Via Fabio Filzi","amenity":"school","name":"Scuola Associazione Culturale Linguistica Italo-Cinese","name:zh":"语林社"},"relations":[],"meta":{}},"geometry":{"type":"Point","coordinates":[11.0784721,43.8899113]}},{"type":"Feature","id":"node/3899818178","properties":{"type":"node","id":3899818178,"tags":{"addr:city":"Prato","addr:housenumber":"110","addr:postcode":"59100","addr:street":"Via Gaetano Donizetti","amenity":"school","name":"Scuola di Lingua San Paolo","name:zh":"紫禁城学校"},"relations":[],"meta":{}},"geometry":{"type":"Point","coordinates":[11.0764384,43.8841865]}},{"type":"Feature","id":"node/3899829885","properties":{"type":"node","id":3899829885,"tags":{"addr:city":"Prato","addr:housenumber":"16","addr:postcode":"59100","addr:street":"Via Ferruccio Busoni","amenity":"school","name":"Scuola L’Associazione d’Amicizia dei Cinesi di Prato","name:zh":"联谊会中文学校"},"relations":[],"meta":{}},"geometry":{"type":"Point","coordinates":[11.0707408,43.8914269]}},{"type":"Feature","id":"node/3903443252","properties":{"type":"node","id":3903443252,"tags":{"amenity":"post_office","name":"Ufficio Postale","name:zh":"中国街邮局"},"relations":[],"meta":{}},"geometry":{"type":"Point","coordinates":[11.0856572,43.8826663]}},{"type":"Feature","id":"node/3903452023","properties":{"type":"node","id":3903452023,"tags":{"addr:city":"Prato","addr:housenumber":"27","addr:postcode":"59100","addr:street":"Via Benedetto Cairoli","name":"Prefettura","name:zh":"普拉托省督府","office":"government"},"relations":[],"meta":{}},"geometry":{"type":"Point","coordinates":[11.0978003,43.8802894]}},{"type":"Feature","id":"node/3903464447","properties":{"type":"node","id":3903464447,"tags":{"addr:city":"Prato","addr:housenumber":"101","addr:postcode":"59100","addr:street":"Via Roma","name":"Ufficio Immigrazione (comune di Prato)","name:zh":"市政府（移民办公室）","office":"administrative"},"relations":[],"meta":{}},"geometry":{"type":"Point","coordinates":[11.0911561,43.8735233]}},{"type":"Feature","id":"node/3927801296","properties":{"type":"node","id":3927801296,"tags":{"addr:housenumber":"15","addr:street":"Via Antonio Marini","amenity":"school","name":"Liceo Livi","name:zh":"Livi 高中"},"relations":[],"meta":{}},"geometry":{"type":"Point","coordinates":[11.0899348,43.8847577]}},{"type":"Feature","id":"node/3927801297","properties":{"type":"node","id":3927801297,"tags":{"addr:city":"Prato","addr:housenumber":"15","addr:postcode":"59100","addr:street":"Via Antonio Marini","amenity":"school","name":"Liceo Livi","name:zh":"Livi 高中"},"relations":[],"meta":{}},"geometry":{"type":"Point","coordinates":[11.0899348,43.8847577]}},{"type":"Feature","id":"node/3927939237","properties":{"type":"node","id":3927939237,"tags":{"addr:city":"Prato","addr:housenumber":"305","addr:postcode":"59100","addr:street":"Via Francesco Ferrucci","amenity":"restaurant","cuisine":"chinese","name":"Hua Qiao China Ristorante","name:zh":"华侨饭店"},"relations":[],"meta":{}},"geometry":{"type":"Point","coordinates":[11.1186369,43.8608953]}},{"type":"Feature","id":"node/3927948962","properties":{"type":"node","id":3927948962,"tags":{"addr:city":"Prato","addr:housenumber":"47","addr:postcode":"59100","addr:street":"Via Marengo","name":"Penny Market","name:zh":"Penny 超市","shop":"supermarket"},"relations":[],"meta":{}},"geometry":{"type":"Point","coordinates":[11.0887036,43.8721369]}},{"type":"Feature","id":"node/3927949669","properties":{"type":"node","id":3927949669,"tags":{"addr:city":"Prato","addr:housenumber":"4","addr:postcode":"59100","addr:street":"Via Gaetano Bresci","amenity":"pub","name":"New Life Club","name:zh":"大中华夜吧"},"relations":[],"meta":{}},"geometry":{"type":"Point","coordinates":[11.100388,43.8883967]}},{"type":"Feature","id":"node/3928252558","properties":{"type":"node","id":3928252558,"tags":{"addr:city":"Prato","addr:housenumber":"58","addr:postcode":"59100","addr:street":"Via Pistoiese","amenity":"restaurant","cuisine":"chinese","name":"Bar Tavola Calda XIANGMANLOU","name:zh":"香满楼"},"relations":[],"meta":{}},"geometry":{"type":"Point","coordinates":[11.0891441,43.8840712]}},{"type":"Feature","id":"node/3928255119","properties":{"type":"node","id":3928255119,"tags":{"addr:city":"Prato","addr:housenumber":"37","addr:postcode":"59100","addr:street":"Via Giacomo Puccini","amenity":"restaurant","cuisine":"chinese","name":"Ristorante Orchidea","name:zh":"兰香园"},"relations":[],"meta":{}},"geometry":{"type":"Point","coordinates":[11.0881082,43.8824938]}},{"type":"Feature","id":"node/3928261738","properties":{"type":"node","id":3928261738,"tags":{"addr:city":"Prato","addr:housenumber":"133","addr:postcode":"59100","addr:street":"Via Marco Roncioni","amenity":"restaurant","cuisine":"chinese","name":"Ristorante Internazionale","name:zh":"国际饭店"},"relations":[],"meta":{}},"geometry":{"type":"Point","coordinates":[11.0839536,43.8756625]}},{"type":"Feature","id":"node/3928265442","properties":{"type":"node","id":3928265442,"tags":{"addr:city":"Prato","addr:housenumber":"2-24","addr:postcode":"59100","addr:street":"Via Goffredo Mameli","amenity":"place_of_worship","denomination":"catholic","name":"Chiesa Chinatown","name:zh":"中国街教堂","religion":"christian"},"relations":[],"meta":{}},"geometry":{"type":"Point","coordinates":[11.0870419,43.8864369]}},{"type":"Feature","id":"node/3928274979","properties":{"type":"node","id":3928274979,"tags":{"addr:city":"Prato","addr:housenumber":"146","addr:postcode":"59100","addr:street":"Via Pistoiese","amenity":"restaurant","cuisine":"chinese","name":"Ciao","name:zh":"您好火锅城"},"relations":[],"meta":{}},"geometry":{"type":"Point","coordinates":[11.0865873,43.8856341]}},{"type":"Feature","id":"node/3928276791","properties":{"type":"node","id":3928276791,"tags":{"addr:city":"Prato","addr:housenumber":"16","addr:postcode":"59100","addr:street":"Via Damiano Chiesa","name":"Internet Point Creative","name:zh":"新概念网络","office":"it"},"relations":[],"meta":{}},"geometry":{"type":"Point","coordinates":[11.0859095,43.8864543]}},{"type":"Feature","id":"node/3928562196","properties":{"type":"node","id":3928562196,"tags":{"addr:city":"Prato","addr:housenumber":"112","addr:postcode":"59100","addr:street":"Via Fabio Filzi","name":"Fly Viaggi","name:zh":"飞扬旅行社","shop":"travel_agency"},"relations":[],"meta":{}},"geometry":{"type":"Point","coordinates":[11.0815049,43.8887678]}},{"type":"Feature","id":"node/3928574442","properties":{"type":"node","id":3928574442,"tags":{"addr:city":"Prato","addr:housenumber":"13","addr:postcode":"59100","addr:street":"Via Alessandro Scarlatti","amenity":"nightclub","name":"No. 1 Club","name:zh":"飞扬旅行社"},"relations":[],"meta":{}},"geometry":{"type":"Point","coordinates":[11.070447,43.891943]}},{"type":"Feature","id":"node/3928582977","properties":{"type":"node","id":3928582977,"tags":{"addr:city":"Prato","addr:housenumber":"13","addr:postcode":"59100","addr:street":"Via Alessandro Scarlatti","amenity":"restaurant","cuisine":"chinese","name":"Tavola calda JINYULOU","name:zh":"锦玉楼"},"relations":[],"meta":{}},"geometry":{"type":"Point","coordinates":[11.0703607,43.891963]}},{"type":"Feature","id":"node/3928622303","properties":{"type":"node","id":3928622303,"tags":{"addr:city":"Prato","addr:housenumber":"11","addr:postcode":"59100","addr:street":"Via Avignone","amenity":"restaurant","cuisine":"japanese","name":"Nagoya","name:zh":"一人一锅 - 日餐"},"relations":[],"meta":{}},"geometry":{"type":"Point","coordinates":[11.0738469,43.8792124]}},{"type":"Feature","id":"node/3928631362","properties":{"type":"node","id":3928631362,"tags":{"addr:city":"Prato","addr:housenumber":"22","addr:postcode":"59100","addr:street":"Via delle Pleiadi","leisure":"sports_centre","name":"Virgin","name:zh":"Virgin 健身房"},"relations":[],"meta":{}},"geometry":{"type":"Point","coordinates":[11.062807,43.8735693]}},{"type":"Feature","id":"node/3928638891","properties":{"type":"node","id":3928638891,"tags":{"addr:city":"Prato","addr:housenumber":"25","addr:postcode":"59100","addr:street":"Via della Gora del Pero","name":"Euroingro","name:zh":"欧洲商城","shop":"yes"},"relations":[],"meta":{}},"geometry":{"type":"Point","coordinates":[11.0607854,43.8590848]}},{"type":"Feature","id":"node/3791371600","properties":{"type":"node","id":3791371600,"tags":{},"relations":[{"role":"ubicazione","rel":3347600,"reltags":{"building":"hospital","name":"Vecchio Ospedale di Prato","name:zh":"老医院","type":"multipolygon"}}],"meta":{}},"geometry":{"type":"Point","coordinates":[11.0880363,43.8787427]}}]}
